{"type": "FeatureCollection", "features": [ {"type": "Feature", "properties": {"norad_id": 66524, "name": "STARLINK-35687", "group": "last-30-days", "lat": -3.7763895030988968, "lon": 68.16821940851904, "alt_km": 411.21822763284035, "timestamp": "2025-12-09T14:52:24.941591+00:00", "meta": {"OBJECT_NAME": "STARLINK-35687", "OBJECT_ID": "2025-265J", "EPOCH": "2025-12-09T06:00:02.000160", "MEAN_MOTION": 15.53417773, "ECCENTRICITY": 0.00017468, "INCLINATION": 43.0004, "RA_OF_ASC_NODE": 74.3998, "ARG_OF_PERICENTER": 274.1602, "MEAN_ANOMALY": 171.3483, "EPHEMERIS_TYPE": 0, "CLASSIFICATION_TYPE": "U", "NORAD_CAT_ID": 66524, "ELEMENT_SET_NO": 999, "REV_AT_EPOCH": 443, "BSTAR": -0.03194445, "MEAN_MOTION_DOT": -0.0183833, "MEAN_MOTION_DDOT": 0}, "tle": {"line1": "1 66524U 25265J   25343.25002315 -.01838330  00000+0 -31944-1 0  9997", "line2": "2 66524  43.0004  74.3998 0001746 274.1602 171.3483 15.53417773  4437"}}, "geometry": {"type": "Point", "coordinates": [68.16821940851904, -3.7763895030988968]}}, {"type": "Feature", "properties": {"norad_id": 66525, "name": "STARLINK-35975", "group": "last-30-days", "lat": -2.471301407397378, "lon": 69.57071112168579, "alt_km": 411.2169650633223, "timestamp": "2025-12-09T14:52:24.941601+00:00", "meta": {"OBJECT_NAME": "STARLINK-35975", "OBJECT_ID": "2025-265K", "EPOCH": "2025-12-09T06:00:02.000160", "MEAN_MOTION": 15.53419925, "ECCENTRICITY": 0.00016567, "INCLINATION": 43.0003, "RA_OF_ASC_NODE": 74.3951, "ARG_OF_PERICENTER": 270.3482, "MEAN_ANOMALY": 177.0789, "EPHEMERIS_TYPE": 0, "CLASSIFICATION_TYPE": "U", "NORAD_CAT_ID": 66525, "ELEMENT_SET_NO": 999, "REV_AT_EPOCH": 443, "BSTAR": -0.032042167, "MEAN_MOTION_DOT": -0.0184338, "MEAN_MOTION_DDOT": 0}, "tle": {"line1": "1 66525U 25265K   25343.25002315 -.01843380  00000+0 -32042-1 0  9999", "line2": "2 66525  43.0003  74.3951 0001656 270.3482 177.0789 15.53419925  4433"}}, "geometry": {"type": "Point", "coordinates": [69.57071112168579, -2.471301407397378]}}, {"type": "Feature", "properties": {"norad_id": 66526, "name": "STARLINK-35932", "group": "last-30-days", "lat": -1.1644693091590665, "lon": 70.97060229032783, "alt_km": 411.01064489826604, "timestamp": "2025-12-09T14:52:24.941615+00:00", "meta": {"OBJECT_NAME": "STARLINK-35932", "OBJECT_ID": "2025-265L", "EPOCH": "2025-12-09T06:00:02.000160", "MEAN_MOTION": 15.53421858, "ECCENTRICITY": 0.00017163, "INCLINATION": 43, "RA_OF_ASC_NODE": 74.3903, "ARG_OF_PERICENTER": 273.2732, "MEAN_ANOMALY": 176.0691, "EPHEMERIS_TYPE": 0, "CLASSIFICATION_TYPE": "U", "NORAD_CAT_ID": 66526, "ELEMENT_SET_NO": 999, "REV_AT_EPOCH": 432, "BSTAR": -0.032056119, "MEAN_MOTION_DOT": -0.01844242, "MEAN_MOTION_DDOT": 0}, "tle": {"line1": "1 66526U 25265L   25343.25002315 -.01844242  00000+0 -32056-1 0  9993", "line2": "2 66526  43.0000  74.3903 0001716 273.2732 176.0691 15.53421858  4322"}}, "geometry": {"type": "Point", "coordinates": [70.97060229032783, -1.1644693091590665]}}, {"type": "Feature", "properties": {"norad_id": 66527, "name": "STARLINK-35935", "group": "last-30-days", "lat": 0.14095714095421272, "lon": 72.36727556390392, "alt_km": 411.000190223127, "timestamp": "2025-12-09T14:52:24.941626+00:00", "meta": {"OBJECT_NAME": "STARLINK-35935", "OBJECT_ID": "2025-265M", "EPOCH": "2025-12-09T06:00:02.000160", "MEAN_MOTION": 15.53421729, "ECCENTRICITY": 0.00015281, "INCLINATION": 42.9999, "RA_OF_ASC_NODE": 74.3858, "ARG_OF_PERICENTER": 269.3064, "MEAN_ANOMALY": 181.9538, "EPHEMERIS_TYPE": 0, "CLASSIFICATION_TYPE": "U", "NORAD_CAT_ID": 66527, "ELEMENT_SET_NO": 999, "REV_AT_EPOCH": 443, "BSTAR": -0.032083716, "MEAN_MOTION_DOT": -0.01845525, "MEAN_MOTION_DDOT": 0}, "tle": {"line1": "1 66527U 25265M   25343.25002315 -.01845525  00000+0 -32084-1 0  9990", "line2": "2 66527  42.9999  74.3858 0001528 269.3064 181.9538 15.53421729  4436"}}, "geometry": {"type": "Point", "coordinates": [72.36727556390392, 0.14095714095421272]}}, {"type": "Feature", "properties": {"norad_id": 66528, "name": "STARLINK-35928", "group": "last-30-days", "lat": 1.4494850380365845, "lon": 73.76732992888094, "alt_km": 410.75534123759917, "timestamp": "2025-12-09T14:52:24.941635+00:00", "meta": {"OBJECT_NAME": "STARLINK-35928", "OBJECT_ID": "2025-265N", "EPOCH": "2025-12-09T06:00:02.000160", "MEAN_MOTION": 15.53421786, "ECCENTRICITY": 0.00016697, "INCLINATION": 42.9998, "RA_OF_ASC_NODE": 74.3811, "ARG_OF_PERICENTER": 273.2736, "MEAN_ANOMALY": 179.9022, "EPHEMERIS_TYPE": 0, "CLASSIFICATION_TYPE": "U", "NORAD_CAT_ID": 66528, "ELEMENT_SET_NO": 999, "REV_AT_EPOCH": 443, "BSTAR": -0.032017302, "MEAN_MOTION_DOT": -0.01842234, "MEAN_MOTION_DDOT": 0}, "tle": {"line1": "1 66528U 25265N   25343.25002315 -.01842234  00000+0 -32017-1 0  9991", "line2": "2 66528  42.9998  74.3811 0001669 273.2736 179.9022 15.53421786  4439"}}, "geometry": {"type": "Point", "coordinates": [73.76732992888094, 1.4494850380365845]}}, {"type": "Feature", "properties": {"norad_id": 66529, "name": "STARLINK-35933", "group": "last-30-days", "lat": 2.755529939191221, "lon": 75.16687460501761, "alt_km": 410.65503239135614, "timestamp": "2025-12-09T14:52:24.941646+00:00", "meta": {"OBJECT_NAME": "STARLINK-35933", "OBJECT_ID": "2025-265P", "EPOCH": "2025-12-09T06:00:02.000160", "MEAN_MOTION": 15.5341865, "ECCENTRICITY": 0.00017391, "INCLINATION": 42.9999, "RA_OF_ASC_NODE": 74.376, "ARG_OF_PERICENTER": 271.6122, "MEAN_ANOMALY": 183.4798, "EPHEMERIS_TYPE": 0, "CLASSIFICATION_TYPE": "U", "NORAD_CAT_ID": 66529, "ELEMENT_SET_NO": 999, "REV_AT_EPOCH": 443, "BSTAR": -0.031888318, "MEAN_MOTION_DOT": -0.01835518, "MEAN_MOTION_DDOT": 0}, "tle": {"line1": "1 66529U 25265P   25343.25002315 -.01835518  00000+0 -31888-1 0  9994", "line2": "2 66529  42.9999  74.3760 0001739 271.6122 183.4798 15.53418650  4439"}}, "geometry": {"type": "Point", "coordinates": [75.16687460501761, 2.755529939191221]}}, {"type": "Feature", "properties": {"norad_id": 66530, "name": "STARLINK-35961", "group": "last-30-days", "lat": 4.060002347851522, "lon": 76.56999761012437, "alt_km": 410.4621363280339, "timestamp": "2025-12-09T14:52:24.941655+00:00", "meta": {"OBJECT_NAME": "STARLINK-35961", "OBJECT_ID": "2025-265Q", "EPOCH": "2025-12-09T06:00:02.000160", "MEAN_MOTION": 15.53421063, "ECCENTRICITY": 0.00016547, "INCLINATION": 42.9999, "RA_OF_ASC_NODE": 74.3713, "ARG_OF_PERICENTER": 274.2707, "MEAN_ANOMALY": 182.7395, "EPHEMERIS_TYPE": 0, "CLASSIFICATION_TYPE": "U", "NORAD_CAT_ID": 66530, "ELEMENT_SET_NO": 999, "REV_AT_EPOCH": 443, "BSTAR": -0.031997589, "MEAN_MOTION_DOT": -0.01841177, "MEAN_MOTION_DDOT": 0}, "tle": {"line1": "1 66530U 25265Q   25343.25002315 -.01841177  00000+0 -31998-1 0  9996", "line2": "2 66530  42.9999  74.3713 0001654 274.2707 182.7395 15.53421063  4430"}}, "geometry": {"type": "Point", "coordinates": [76.56999761012437, 4.060002347851522]}}, {"type": "Feature", "properties": {"norad_id": 66531, "name": "STARLINK-35960", "group": "last-30-days", "lat": 5.362216885924785, "lon": 77.9771528665166, "alt_km": 410.37185366891754, "timestamp": "2025-12-09T14:52:24.941668+00:00", "meta": {"OBJECT_NAME": "STARLINK-35960", "OBJECT_ID": "2025-265R", "EPOCH": "2025-12-09T06:00:02.000160", "MEAN_MOTION": 15.53422533, "ECCENTRICITY": 0.00016473, "INCLINATION": 43.0001, "RA_OF_ASC_NODE": 74.3659, "ARG_OF_PERICENTER": 272.7542, "MEAN_ANOMALY": 186.1745, "EPHEMERIS_TYPE": 0, "CLASSIFICATION_TYPE": "U", "NORAD_CAT_ID": 66531, "ELEMENT_SET_NO": 999, "REV_AT_EPOCH": 443, "BSTAR": -0.032099878, "MEAN_MOTION_DOT": -0.01846467, "MEAN_MOTION_DDOT": 0}, "tle": {"line1": "1 66531U 25265R   25343.25002315 -.01846467  00000+0 -32100-1 0  9990", "line2": "2 66531  43.0001  74.3659 0001647 272.7542 186.1745 15.53422533  4438"}}, "geometry": {"type": "Point", "coordinates": [77.9771528665166, 5.362216885924785]}}, {"type": "Feature", "properties": {"norad_id": 66532, "name": "STARLINK-35914", "group": "last-30-days", "lat": 6.660909000323478, "lon": 79.39105898876024, "alt_km": 410.1502884680085, "timestamp": "2025-12-09T14:52:24.941678+00:00", "meta": {"OBJECT_NAME": "STARLINK-35914", "OBJECT_ID": "2025-265S", "EPOCH": "2025-12-09T06:00:02.000160", "MEAN_MOTION": 15.53422908, "ECCENTRICITY": 0.00016746, "INCLINATION": 43.0001, "RA_OF_ASC_NODE": 74.3615, "ARG_OF_PERICENTER": 275.4792, "MEAN_ANOMALY": 185.3628, "EPHEMERIS_TYPE": 0, "CLASSIFICATION_TYPE": "U", "NORAD_CAT_ID": 66532, "ELEMENT_SET_NO": 999, "REV_AT_EPOCH": 443, "BSTAR": -0.032017676, "MEAN_MOTION_DOT": -0.01842323, "MEAN_MOTION_DDOT": 0}, "tle": {"line1": "1 66532U 25265S   25343.25002315 -.01842323  00000+0 -32018-1 0  9996", "line2": "2 66532  43.0001  74.3615 0001674 275.4792 185.3628 15.53422908  4435"}}, "geometry": {"type": "Point", "coordinates": [79.39105898876024, 6.660909000323478]}}, {"type": "Feature", "properties": {"norad_id": 66533, "name": "STARLINK-35707", "group": "last-30-days", "lat": 7.955496869393969, "lon": 80.81211074341448, "alt_km": 410.07572368401907, "timestamp": "2025-12-09T14:52:24.941691+00:00", "meta": {"OBJECT_NAME": "STARLINK-35707", "OBJECT_ID": "2025-265T", "EPOCH": "2025-12-09T06:00:02.000160", "MEAN_MOTION": 15.53415326, "ECCENTRICITY": 0.00015594, "INCLINATION": 42.9999, "RA_OF_ASC_NODE": 74.3567, "ARG_OF_PERICENTER": 272.2433, "MEAN_ANOMALY": 190.5208, "EPHEMERIS_TYPE": 0, "CLASSIFICATION_TYPE": "U", "NORAD_CAT_ID": 66533, "ELEMENT_SET_NO": 999, "REV_AT_EPOCH": 443, "BSTAR": -0.031828585, "MEAN_MOTION_DOT": -0.01832167, "MEAN_MOTION_DDOT": 0}, "tle": {"line1": "1 66533U 25265T   25343.25002315 -.01832167  00000+0 -31829-1 0  9991", "line2": "2 66533  42.9999  74.3567 0001559 272.2433 190.5208 15.53415326  4433"}}, "geometry": {"type": "Point", "coordinates": [80.81211074341448, 7.955496869393969]}}]}